STARLINK-34615          
1 66321U 25253C   25334.66221361  .00086849  00000+0  92206-3 0  9995
2 66321  42.9999  54.8648 0002343   0.2430 359.8435 15.63079101  5069
STARLINK-35292          
1 66322U 25253D   25334.58335648 -.02002756  00000+0 -47573-1 0  9995
2 66322  43.0002  55.8483 0001820 284.7131 142.0986 15.44346307  4977
STARLINK-35309          
1 66323U 25253E   25334.69645382  .00069894  00000+0  11860-2 0  9990
2 66323  42.9998  55.1339 0000963 273.5467  86.5283 15.50592403  5068
STARLINK-35506          
1 66324U 25253F   25334.69782388  .00108851  00000+0  18334-2 0  9999
2 66324  42.9999  55.1440 0001681 265.9284  94.1384 15.50612127  5066
STARLINK-35504          
1 66325U 25253G   25334.69713941  .00078830  00000+0  13352-2 0  9997
2 66325  43.0003  55.1387 0001322 277.8639  82.2071 15.50596305  5063
STARLINK-35479          
1 66326U 25253H   25334.63169642  .00105303  00000+0  17754-2 0  9991
2 66326  43.0001  55.5057 0001093 276.0977  83.9758 15.50600751  5051
STARLINK-35507          
1 66327U 25253J   25334.69816838  .00105538  00000+0  17791-2 0  9995
2 66327  43.0002  55.1470 0001478 276.0037  84.0654 15.50603191  5061
STARLINK-35460          
1 66328U 25253K   25334.69508191  .00083714  00000+0  14167-2 0  9991
2 66328  42.9997  55.1202 0001018 269.6006  90.4738 15.50596432  5063
