{
  "type": "FeatureCollection",
  "features": [
    {
      "type": "Feature",
      "properties": {
        "norad_id": 66321,
        "name": "STARLINK-34615",
        "group": "last-30-days",
        "lat": NaN,
        "lon": NaN,
        "alt_km": NaN,
        "timestamp": "2025-12-01T02:46:51.392440+00:00",
        "meta": {
          "OBJECT_NAME": "STARLINK-34615",
          "OBJECT_ID": "2025-253C",
          "EPOCH": "2025-11-30T15:53:35.255904",
          "MEAN_MOTION": 15.63079101,
          "ECCENTRICITY": 0.0002343,
          "INCLINATION": 42.9999,
          "RA_OF_ASC_NODE": 54.8648,
          "ARG_OF_PERICENTER": 0.243,
          "MEAN_ANOMALY": 359.8435,
          "EPHEMERIS_TYPE": 0,
          "CLASSIFICATION_TYPE": "U",
          "NORAD_CAT_ID": 66321,
          "ELEMENT_SET_NO": 999,
          "REV_AT_EPOCH": 506,
          "BSTAR": 0.00092206,
          "MEAN_MOTION_DOT": 0.00086849,
          "MEAN_MOTION_DDOT": 0
        }
      },
      "geometry": {
        "type": "Point",
        "coordinates": [
          NaN,
          NaN
        ]
      }
    },
    {
      "type": "Feature",
      "properties": {
        "norad_id": 66322,
        "name": "STARLINK-35292",
        "group": "last-30-days",
        "lat": NaN,
        "lon": NaN,
        "alt_km": NaN,
        "timestamp": "2025-12-01T02:46:51.392460+00:00",
        "meta": {
          "OBJECT_NAME": "STARLINK-35292",
          "OBJECT_ID": "2025-253D",
          "EPOCH": "2025-11-30T14:00:01.999872",
          "MEAN_MOTION": 15.44346307,
          "ECCENTRICITY": 0.00018206,
          "INCLINATION": 43.0002,
          "RA_OF_ASC_NODE": 55.8483,
          "ARG_OF_PERICENTER": 284.7131,
          "MEAN_ANOMALY": 142.0986,
          "EPHEMERIS_TYPE": 0,
          "CLASSIFICATION_TYPE": "U",
          "NORAD_CAT_ID": 66322,
          "ELEMENT_SET_NO": 999,
          "REV_AT_EPOCH": 497,
          "BSTAR": -0.047573427,
          "MEAN_MOTION_DOT": -0.02002756,
          "MEAN_MOTION_DDOT": 0
        }
      },
      "geometry": {
        "type": "Point",
        "coordinates": [
          NaN,
          NaN
        ]
      }
    },
    {
      "type": "Feature",
      "properties": {
        "norad_id": 66323,
        "name": "STARLINK-35309",
        "group": "last-30-days",
        "lat": NaN,
        "lon": NaN,
        "alt_km": NaN,
        "timestamp": "2025-12-01T02:46:51.392478+00:00",
        "meta": {
          "OBJECT_NAME": "STARLINK-35309",
          "OBJECT_ID": "2025-253E",
          "EPOCH": "2025-11-30T16:42:53.610048",
          "MEAN_MOTION": 15.50592403,
          "ECCENTRICITY": 9.63e-05,
          "INCLINATION": 42.9998,
          "RA_OF_ASC_NODE": 55.1339,
          "ARG_OF_PERICENTER": 273.5467,
          "MEAN_ANOMALY": 86.5283,
          "EPHEMERIS_TYPE": 0,
          "CLASSIFICATION_TYPE": "U",
          "NORAD_CAT_ID": 66323,
          "ELEMENT_SET_NO": 999,
          "REV_AT_EPOCH": 506,
          "BSTAR": 0.001186,
          "MEAN_MOTION_DOT": 0.00069894,
          "MEAN_MOTION_DDOT": 0
        }
      },
      "geometry": {
        "type": "Point",
        "coordinates": [
          NaN,
          NaN
        ]
      }
    },
    {
      "type": "Feature",
      "properties": {
        "norad_id": 66324,
        "name": "STARLINK-35506",
        "group": "last-30-days",
        "lat": NaN,
        "lon": NaN,
        "alt_km": NaN,
        "timestamp": "2025-12-01T02:46:51.392496+00:00",
        "meta": {
          "OBJECT_NAME": "STARLINK-35506",
          "OBJECT_ID": "2025-253F",
          "EPOCH": "2025-11-30T16:44:51.983232",
          "MEAN_MOTION": 15.50612127,
          "ECCENTRICITY": 0.0001681,
          "INCLINATION": 42.9999,
          "RA_OF_ASC_NODE": 55.144,
          "ARG_OF_PERICENTER": 265.9284,
          "MEAN_ANOMALY": 94.1384,
          "EPHEMERIS_TYPE": 0,
          "CLASSIFICATION_TYPE": "U",
          "NORAD_CAT_ID": 66324,
          "ELEMENT_SET_NO": 999,
          "REV_AT_EPOCH": 506,
          "BSTAR": 0.0018334,
          "MEAN_MOTION_DOT": 0.00108851,
          "MEAN_MOTION_DDOT": 0
        }
      },
      "geometry": {
        "type": "Point",
        "coordinates": [
          NaN,
          NaN
        ]
      }
    },
    {
      "type": "Feature",
      "properties": {
        "norad_id": 66325,
        "name": "STARLINK-35504",
        "group": "last-30-days",
        "lat": NaN,
        "lon": NaN,
        "alt_km": NaN,
        "timestamp": "2025-12-01T02:46:51.392513+00:00",
        "meta": {
          "OBJECT_NAME": "STARLINK-35504",
          "OBJECT_ID": "2025-253G",
          "EPOCH": "2025-11-30T16:43:52.845024",
          "MEAN_MOTION": 15.50596305,
          "ECCENTRICITY": 0.0001322,
          "INCLINATION": 43.0003,
          "RA_OF_ASC_NODE": 55.1387,
          "ARG_OF_PERICENTER": 277.8639,
          "MEAN_ANOMALY": 82.2071,
          "EPHEMERIS_TYPE": 0,
          "CLASSIFICATION_TYPE": "U",
          "NORAD_CAT_ID": 66325,
          "ELEMENT_SET_NO": 999,
          "REV_AT_EPOCH": 506,
          "BSTAR": 0.0013352,
          "MEAN_MOTION_DOT": 0.0007883,
          "MEAN_MOTION_DDOT": 0
        }
      },
      "geometry": {
        "type": "Point",
        "coordinates": [
          NaN,
          NaN
        ]
      }
    },
    {
      "type": "Feature",
      "properties": {
        "norad_id": 66326,
        "name": "STARLINK-35479",
        "group": "last-30-days",
        "lat": NaN,
        "lon": NaN,
        "alt_km": NaN,
        "timestamp": "2025-12-01T02:46:51.392530+00:00",
        "meta": {
          "OBJECT_NAME": "STARLINK-35479",
          "OBJECT_ID": "2025-253H",
          "EPOCH": "2025-11-30T15:09:38.570688",
          "MEAN_MOTION": 15.50600751,
          "ECCENTRICITY": 0.0001093,
          "INCLINATION": 43.0001,
          "RA_OF_ASC_NODE": 55.5057,
          "ARG_OF_PERICENTER": 276.0977,
          "MEAN_ANOMALY": 83.9758,
          "EPHEMERIS_TYPE": 0,
          "CLASSIFICATION_TYPE": "U",
          "NORAD_CAT_ID": 66326,
          "ELEMENT_SET_NO": 999,
          "REV_AT_EPOCH": 505,
          "BSTAR": 0.0017754,
          "MEAN_MOTION_DOT": 0.00105303,
          "MEAN_MOTION_DDOT": 0
        }
      },
      "geometry": {
        "type": "Point",
        "coordinates": [
          NaN,
          NaN
        ]
      }
    },
    {
      "type": "Feature",
      "properties": {
        "norad_id": 66327,
        "name": "STARLINK-35507",
        "group": "last-30-days",
        "lat": NaN,
        "lon": NaN,
        "alt_km": NaN,
        "timestamp": "2025-12-01T02:46:51.392547+00:00",
        "meta": {
          "OBJECT_NAME": "STARLINK-35507",
          "OBJECT_ID": "2025-253J",
          "EPOCH": "2025-11-30T16:45:21.748032",
          "MEAN_MOTION": 15.50603191,
          "ECCENTRICITY": 0.0001478,
          "INCLINATION": 43.0002,
          "RA_OF_ASC_NODE": 55.147,
          "ARG_OF_PERICENTER": 276.0037,
          "MEAN_ANOMALY": 84.0654,
          "EPHEMERIS_TYPE": 0,
          "CLASSIFICATION_TYPE": "U",
          "NORAD_CAT_ID": 66327,
          "ELEMENT_SET_NO": 999,
          "REV_AT_EPOCH": 506,
          "BSTAR": 0.0017791,
          "MEAN_MOTION_DOT": 0.00105538,
          "MEAN_MOTION_DDOT": 0
        }
      },
      "geometry": {
        "type": "Point",
        "coordinates": [
          NaN,
          NaN
        ]
      }
    },
    {
      "type": "Feature",
      "properties": {
        "norad_id": 66328,
        "name": "STARLINK-35460",
        "group": "last-30-days",
        "lat": NaN,
        "lon": NaN,
        "alt_km": NaN,
        "timestamp": "2025-12-01T02:46:51.392568+00:00",
        "meta": {
          "OBJECT_NAME": "STARLINK-35460",
          "OBJECT_ID": "2025-253K",
          "EPOCH": "2025-11-30T16:40:55.077024",
          "MEAN_MOTION": 15.50596432,
          "ECCENTRICITY": 0.0001018,
          "INCLINATION": 42.9997,
          "RA_OF_ASC_NODE": 55.1202,
          "ARG_OF_PERICENTER": 269.6006,
          "MEAN_ANOMALY": 90.4738,
          "EPHEMERIS_TYPE": 0,
          "CLASSIFICATION_TYPE": "U",
          "NORAD_CAT_ID": 66328,
          "ELEMENT_SET_NO": 999,
          "REV_AT_EPOCH": 506,
          "BSTAR": 0.0014167,
          "MEAN_MOTION_DOT": 0.00083714,
          "MEAN_MOTION_DDOT": 0
        }
      },
      "geometry": {
        "type": "Point",
        "coordinates": [
          NaN,
          NaN
        ]
      }
    }
  ]
}